{
  "norad_id": 63985,
  "name": "SCS-01 D",
  "history": [
    {
      "epoch": "2026-03-27T11:24:17.358624Z",
      "apogee_km": 485.16052012170985,
      "perigee_km": 471.3407851690372,
      "latitude_deg": 2.6135171195507802e-05,
      "longitude_deg": 167.02299975002362,
      "height_km": 488.0175324405757,
      "semi_major_axis_km": 6856.387652645373,
      "eccentricity": 0.0010078,
      "inclination_deg": 97.3711,
      "raan_deg": 163.0048,
      "arg_perigee_deg": 195.5135,
      "mean_anomaly_deg": 164.5798,
      "mean_motion_rev_day": 15.29183896
    }
  ]
}